start=new Date('2023-04-22T00:00:00.000Z').valueOf();
sats=[{"REV_AT_EPOCH":"130","EPHEMERIS_TYPE":"0","DECAY_DATE":null,"MEAN_ELEMENT_THEORY":"SGP4","OBJECT_NAME":"STARLINK-5294","OBJECT_TYPE":"PAYLOAD","PERIAPSIS":"543.643","TLE_LINE2":"2 54159  53.2176  59.6406 0001528  93.4578 124.7097 15.07220279  1301","OBJECT_ID":"2022-141C","ECCENTRICITY":"0.00015280","INCLINATION":"53.2176","ARG_OF_PERICENTER":"93.4578","SEMIMAJOR_AXIS":"6922.836","TLE_LINE1":"1 54159U 22141C   23112.00002315 -.00033746  00000-0 -22078-2 0  9990","GP_ID":"230531429","COUNTRY_CODE":"US","CLASSIFICATION_TYPE":"U","RCS_SIZE":"LARGE","PERIOD":"95.540","MEAN_MOTION_DOT":"-0.00033746","CENTER_NAME":"EARTH","LAUNCH_DATE":"2022-10-28","MEAN_MOTION":"15.07220279","TIME_SYSTEM":"UTC","MEAN_MOTION_DDOT":"0.0000000000000","FILE":"3891716","APOAPSIS":"545.758","MEAN_ANOMALY":"124.7097","RA_OF_ASC_NODE":"59.6406","BSTAR":"-0.00220780000000","ELEMENT_SET_NO":"999","EPOCH":"2023-04-22T00:00:02.000160","NORAD_CAT_ID":"54159","SITE":"AFWTR","REF_FRAME":"TEME"},{"APOAPSIS":"540.430","FILE":"3891716","MEAN_MOTION_DDOT":"0.0000000000000","TIME_SYSTEM":"UTC","MEAN_MOTION":"15.08841561","REF_FRAME":"TEME","SITE":"AFWTR","NORAD_CAT_ID":"54160","EPOCH":"2023-04-21T18:27:17.298144","ELEMENT_SET_NO":"999","BSTAR":"0.00004732000000","RA_OF_ASC_NODE":"15.8285","MEAN_ANOMALY":"282.3831","OBJECT_ID":"2022-141D","TLE_LINE2":"2 54160  53.2192  15.8285 0000997  77.7273 282.3831 15.08841561 27394","PERIAPSIS":"539.051","OBJECT_TYPE":"PAYLOAD","OBJECT_NAME":"STARLINK-5233","DECAY_DATE":null,"MEAN_ELEMENT_THEORY":"SGP4","EPHEMERIS_TYPE":"0","REV_AT_EPOCH":"2739","LAUNCH_DATE":"2022-10-28","CENTER_NAME":"EARTH","MEAN_MOTION_DOT":"0.00000465","PERIOD":"95.437","RCS_SIZE":"LARGE","CLASSIFICATION_TYPE":"U","SEMIMAJOR_AXIS":"6917.876","TLE_LINE1":"1 54160U 22141D   23111.76895021  .00000465  00000-0  47320-4 0  9997","GP_ID":"230530182","COUNTRY_CODE":"US","ECCENTRICITY":"0.00009970","INCLINATION":"53.2192","ARG_OF_PERICENTER":"77.7273"},{"INCLINATION":"53.2172","ECCENTRICITY":"0.00012660","ARG_OF_PERICENTER":"95.6584","GP_ID":"230530928","TLE_LINE1":"1 54161U 22141E   23111.59002624  .00000522  00000-0  50893-4 0  9991","SEMIMAJOR_AXIS":"6917.884","COUNTRY_CODE":"US","CLASSIFICATION_TYPE":"U","RCS_SIZE":"LARGE","PERIOD":"95.438","MEAN_MOTION_DOT":"0.00000522","LAUNCH_DATE":"2022-10-28","CENTER_NAME":"EARTH","REV_AT_EPOCH":"2673","EPHEMERIS_TYPE":"0","MEAN_ELEMENT_THEORY":"SGP4","DECAY_DATE":null,"OBJECT_TYPE":"PAYLOAD","OBJECT_NAME":"STARLINK-5269","PERIAPSIS":"538.873","TLE_LINE2":"2 54161  53.2172  61.7633 0001266  95.6584 264.4553 15.08838803 26738","OBJECT_ID":"2022-141E","MEAN_ANOMALY":"264.4553","RA_OF_ASC_NODE":"61.7633","BSTAR":"0.00005089300000","ELEMENT_SET_NO":"999","EPOCH":"2023-04-21T14:09:38.267136","NORAD_CAT_ID":"54161","SITE":"AFWTR","REF_FRAME":"TEME","MEAN_MOTION":"15.08838803","TIME_SYSTEM":"UTC","MEAN_MOTION_DDOT":"0.0000000000000","FILE":"3891716","APOAPSIS":"540.625"},{"MEAN_MOTION":"15.08837274","MEAN_MOTION_DDOT":"0.0000000000000","APOAPSIS":"540.708","FILE":"3891716","TIME_SYSTEM":"UTC","RA_OF_ASC_NODE":"61.7138","MEAN_ANOMALY":"268.4571","REF_FRAME":"TEME","SITE":"AFWTR","ELEMENT_SET_NO":"999","BSTAR":"0.00004318100000","NORAD_CAT_ID":"54162","EPOCH":"2023-04-21T13:59:01.582944","MEAN_ELEMENT_THEORY":"SGP4","DECAY_DATE":null,"OBJECT_NAME":"STARLINK-5273","OBJECT_TYPE":"PAYLOAD","REV_AT_EPOCH":"2673","EPHEMERIS_TYPE":"0","OBJECT_ID":"2022-141F","PERIAPSIS":"538.799","TLE_LINE2":"2 54162  53.2162  61.7138 0001380  91.6579 268.4571 15.08837274 26730","TLE_LINE1":"1 54162U 22141F   23111.58265721  .00000399  00000-0  43181-4 0  9994","SEMIMAJOR_AXIS":"6917.889","GP_ID":"230531678","COUNTRY_CODE":"US","CLASSIFICATION_TYPE":"U","ARG_OF_PERICENTER":"91.6579","ECCENTRICITY":"0.00013800","INCLINATION":"53.2162","MEAN_MOTION_DOT":"0.00000399","PERIOD":"95.438","CENTER_NAME":"EARTH","LAUNCH_DATE":"2022-10-28","RCS_SIZE":"LARGE"},{"MEAN_ANOMALY":"258.5311","RA_OF_ASC_NODE":"52.1110","BSTAR":"0.00010792000000","ELEMENT_SET_NO":"999","EPOCH":"2023-04-21T12:40:53.247648","NORAD_CAT_ID":"54163","SITE":"AFWTR","REF_FRAME":"TEME","MEAN_MOTION":"15.08841016","TIME_SYSTEM":"UTC","MEAN_MOTION_DDOT":"0.0000000000000","FILE":"3891529","APOAPSIS":"540.597","ECCENTRICITY":"0.00012350","INCLINATION":"53.2186","ARG_OF_PERICENTER":"101.5820","SEMIMAJOR_AXIS":"6917.877","TLE_LINE1":"1 54163U 22141G   23111.52839407  .00001430  00000-0  10792-3 0  9995","GP_ID":"230499784","COUNTRY_CODE":"US","CLASSIFICATION_TYPE":"U","RCS_SIZE":"LARGE","MEAN_MOTION_DOT":"0.00001430","PERIOD":"95.437","LAUNCH_DATE":"2022-10-28","CENTER_NAME":"EARTH","REV_AT_EPOCH":"2686","EPHEMERIS_TYPE":"0","MEAN_ELEMENT_THEORY":"SGP4","DECAY_DATE":null,"OBJECT_TYPE":"PAYLOAD","OBJECT_NAME":"STARLINK-5161","PERIAPSIS":"538.888","TLE_LINE2":"2 54163  53.2186  52.1110 0001235 101.5820 258.5311 15.08841016 26865","OBJECT_ID":"2022-141G"},{"TIME_SYSTEM":"UTC","FILE":"3891529","APOAPSIS":"540.604","MEAN_MOTION_DDOT":"0.0000000000000","MEAN_MOTION":"15.08837243","EPOCH":"2023-04-21T12:46:11.712000","NORAD_CAT_ID":"54164","BSTAR":"0.00000768850000","ELEMENT_SET_NO":"999","SITE":"AFWTR","REF_FRAME":"TEME","MEAN_ANOMALY":"267.5565","RA_OF_ASC_NODE":"52.1375","TLE_LINE2":"2 54164  53.2189  52.1375 0001229  92.5568 267.5565 15.08837243 26861","PERIAPSIS":"538.904","OBJECT_ID":"2022-141H","EPHEMERIS_TYPE":"0","REV_AT_EPOCH":"2686","OBJECT_TYPE":"PAYLOAD","OBJECT_NAME":"STARLINK-5278","DECAY_DATE":null,"MEAN_ELEMENT_THEORY":"SGP4","RCS_SIZE":"LARGE","LAUNCH_DATE":"2022-10-28","CENTER_NAME":"EARTH","PERIOD":"95.438","MEAN_MOTION_DOT":"-0.00000165","INCLINATION":"53.2189","ECCENTRICITY":"0.00012290","ARG_OF_PERICENTER":"92.5568","CLASSIFICATION_TYPE":"U","COUNTRY_CODE":"US","TLE_LINE1":"1 54164U 22141H   23111.53208000 -.00000165  00000-0  76885-5 0  9998","GP_ID":"230500036","SEMIMAJOR_AXIS":"6917.889"},{"RCS_SIZE":"LARGE","CENTER_NAME":"EARTH","LAUNCH_DATE":"2022-10-28","PERIOD":"95.437","MEAN_MOTION_DOT":"0.00000384","ARG_OF_PERICENTER":"100.6394","INCLINATION":"53.2160","ECCENTRICITY":"0.00013820","CLASSIFICATION_TYPE":"U","TLE_LINE1":"1 54165U 22141J   23111.84393128  .00000384  00000-0  42210-4 0  9995","GP_ID":"230530428","COUNTRY_CODE":"US","SEMIMAJOR_AXIS":"6917.869","TLE_LINE2":"2 54165  53.2160  60.5011 0001382 100.6394 259.4753 15.08843572 26770","PERIAPSIS":"538.778","OBJECT_ID":"2022-141J","EPHEMERIS_TYPE":"0","REV_AT_EPOCH":"2677","OBJECT_TYPE":"PAYLOAD","OBJECT_NAME":"STARLINK-5279","MEAN_ELEMENT_THEORY":"SGP4","DECAY_DATE":null,"NORAD_CAT_ID":"54165","EPOCH":"2023-04-21T20:15:15.662592","ELEMENT_SET_NO":"999","BSTAR":"0.00004221000000","REF_FRAME":"TEME","SITE":"AFWTR","MEAN_ANOMALY":"259.4753","RA_OF_ASC_NODE":"60.5011","TIME_SYSTEM":"UTC","APOAPSIS":"540.691","FILE":"3891716","MEAN_MOTION_DDOT":"0.0000000000000","MEAN_MOTION":"15.08843572"},{"EPHEMERIS_TYPE":"0","REV_AT_EPOCH":"2686","OBJECT_TYPE":"PAYLOAD","OBJECT_NAME":"STARLINK-5280","DECAY_DATE":null,"MEAN_ELEMENT_THEORY":"SGP4","TLE_LINE2":"2 54166  53.2188  52.0913 0000767  88.5962 271.5118 15.08830617 26865","PERIAPSIS":"539.243","OBJECT_ID":"2022-141K","INCLINATION":"53.2188","ARG_OF_PERICENTER":"88.5962","ECCENTRICITY":"0.00007670","CLASSIFICATION_TYPE":"U","TLE_LINE1":"1 54166U 22141K   23111.52471405  .00002672  00000-0  18593-3 0  9994","SEMIMAJOR_AXIS":"6917.909","GP_ID":"230499035","COUNTRY_CODE":"US","RCS_SIZE":"LARGE","LAUNCH_DATE":"2022-10-28","CENTER_NAME":"EARTH","PERIOD":"95.438","MEAN_MOTION_DOT":"0.00002672","MEAN_MOTION":"15.08830617","TIME_SYSTEM":"UTC","APOAPSIS":"540.305","FILE":"3891529","MEAN_MOTION_DDOT":"0.0000000000000","MEAN_ANOMALY":"271.5118","RA_OF_ASC_NODE":"52.0913","NORAD_CAT_ID":"54166","EPOCH":"2023-04-21T12:35:35.293920","ELEMENT_SET_NO":"999","BSTAR":"0.00018593000000","REF_FRAME":"TEME","SITE":"AFWTR"},{"ELEMENT_SET_NO":"999","BSTAR":"0.02932500000000","NORAD_CAT_ID":"54167","EPOCH":"2023-04-22T00:00:02.000160","REF_FRAME":"TEME","SITE":"AFWTR","MEAN_ANOMALY":"143.8936","RA_OF_ASC_NODE":"59.5993","TIME_SYSTEM":"UTC","MEAN_MOTION_DDOT":"0.0000000000000","APOAPSIS":"544.543","FILE":"3891716","MEAN_MOTION":"15.07593363","RCS_SIZE":"LARGE","PERIOD":"95.516","MEAN_MOTION_DOT":"0.00477573","CENTER_NAME":"EARTH","LAUNCH_DATE":"2022-10-28","INCLINATION":"53.2175","ECCENTRICITY":"0.00014230","ARG_OF_PERICENTER":"87.6389","TLE_LINE1":"1 54167U 22141L   23112.00002315  .00477573  00000-0  29325-1 0  9998","SEMIMAJOR_AXIS":"6921.693","GP_ID":"230531430","COUNTRY_CODE":"US","CLASSIFICATION_TYPE":"U","PERIAPSIS":"542.574","TLE_LINE2":"2 54167  53.2175  59.5993 0001423  87.6389 143.8936 15.07593363  1309","OBJECT_ID":"2022-141L","REV_AT_EPOCH":"130","EPHEMERIS_TYPE":"0","MEAN_ELEMENT_THEORY":"SGP4","DECAY_DATE":null,"OBJECT_TYPE":"PAYLOAD","OBJECT_NAME":"STARLINK-5243"},{"EPHEMERIS_TYPE":"0","REV_AT_EPOCH":"2681","OBJECT_TYPE":"PAYLOAD","OBJECT_NAME":"STARLINK-5245","MEAN_ELEMENT_THEORY":"SGP4","DECAY_DATE":null,"TLE_LINE2":"2 54168  53.2177  53.5566 0000673  76.8285 283.2782 15.08827732 26815","PERIAPSIS":"539.317","OBJECT_ID":"2022-141M","INCLINATION":"53.2177","ARG_OF_PERICENTER":"76.8285","ECCENTRICITY":"0.00006730","CLASSIFICATION_TYPE":"U","TLE_LINE1":"1 54168U 22141M   23111.18983714 -.00003136  00000-0 -17914-3 0  9993","SEMIMAJOR_AXIS":"6917.918","GP_ID":"230500536","COUNTRY_CODE":"US","RCS_SIZE":"LARGE","LAUNCH_DATE":"2022-10-28","CENTER_NAME":"EARTH","PERIOD":"95.438","MEAN_MOTION_DOT":"-0.00003136","MEAN_MOTION":"15.08827732","TIME_SYSTEM":"UTC","APOAPSIS":"540.248","FILE":"3891529","MEAN_MOTION_DDOT":"0.0000000000000","MEAN_ANOMALY":"283.2782","RA_OF_ASC_NODE":"53.5566","NORAD_CAT_ID":"54168","EPOCH":"2023-04-21T04:33:21.928896","ELEMENT_SET_NO":"999","BSTAR":"-0.00017914000000","REF_FRAME":"TEME","SITE":"AFWTR"}];
